OBJECT_NAME,OBJECT_ID,EPOCH,MEAN_MOTION,ECCENTRICITY,INCLINATION,RA_OF_ASC_NODE,ARG_OF_PERICENTER,MEAN_ANOMALY,EPHEMERIS_TYPE,CLASSIFICATION_TYPE,NORAD_CAT_ID,ELEMENT_SET_NO,REV_AT_EPOCH,BSTAR,MEAN_MOTION_DOT,MEAN_MOTION_DDOT
STARS (KUKAI),2009-002G,2026-07-14T20:17:59.676576,14.95924415,.0009814,98.1553,144.2883,80.4239,279.8089,0,U,33498,999,94261,.15112E-3,.163E-4,0
KKS-1 (KISEKI),2009-002H,2026-07-14T20:23:29.656320,14.83188731,.00074,98.1174,118.7302,190.1737,169.9327,0,U,33499,999,94029,.82917E-4,.621E-5,0
UK-DMC 2,2009-041C,2026-07-14T19:34:42.673152,14.76096068,.0001562,97.8865,330.1120,100.5277,259.6108,0,U,35683,999,91064,.15257E-3,.1003E-4,0
OCEANSAT-2,2009-051A,2026-07-14T20:45:07.073280,13.99656019,.001732,98.2320,179.9528,154.4338,205.7688,0,U,35931,999,88320,-.44456E-4,-.103E-5,0
SWISSCUBE,2009-051B,2026-07-14T17:46:10.898688,14.62530263,.0007823,98.4008,104.1063,120.2894,239.9082,0,U,35932,999,89318,.10206E-3,.468E-5,0
BEESAT-1,2009-051C,2026-07-14T16:41:56.910048,14.61761410,.0006093,98.3936,103.6385,131.1262,229.0465,0,U,35933,999,89320,.87927E-4,.389E-5,0
ITUPSAT1,2009-051E,2026-07-14T17:03:33.869088,14.60478385,.0008055,98.4019,102.8162,144.4895,215.6843,0,U,35935,999,89275,.8435E-4,.36E-5,0
DMSP 5D-3 F18 (USA 210),2009-057A,2026-07-14T20:40:42.968352,14.14911469,.0011205,98.9056,176.5730,166.4092,193.7384,0,U,35951,999,86350,.10377E-3,.156E-5,0
PROBA-2,2009-059B,2026-07-14T11:24:44.564256,14.54873530,.00129843,98.2458,18.4511,190.9949,169.0966,0,U,36037,999,88549,.28226467E-4,.76E-6,0
YAOGAN-7,2009-069A,2026-07-14T15:24:45.769824,14.78035216,.0023549,98.0034,81.3353,313.2260,46.6983,0,U,36110,999,89368,.36592E-4,.212E-5,0
XIWANG-1 (HOPE-1),2009-072B,2026-07-14T19:57:26.753760,13.16441439,.000755,100.4033,149.2239,165.4885,194.6446,0,U,36122,999,79664,.79649E-3,.26E-5,0
COSMOS 2463,2010-017A,2026-07-14T15:04:46.828128,13.71667178,.0037317,82.9583,229.5438,55.4282,59.4610,0,U,36519,999,81169,.291E-4,.42E-6,0
CARTOSAT-2B,2010-035A,2026-07-14T21:09:43.237152,14.78615142,.0012564,97.9944,246.2516,100.0389,260.2240,0,U,36795,999,86394,-.17814E-4,-.183E-5,0
TISAT 1,2010-035E,2026-07-14T19:21:42.672960,15.32722087,.0004489,98.0714,144.8302,120.8068,239.3614,0,U,36799,999,87193,.38103E-3,.11961E-3,0
YAOGAN-10,2010-038A,2026-07-14T21:56:47.082048,14.85429481,.0001649,97.8968,219.0973,84.4397,38.5032,0,U,36834,999,86132,.15143E-3,.1251E-4,0
SHIJIAN-6 04B (SJ-6 04B),2010-051B,2026-07-14T20:27:08.195616,14.99383195,.0007672,97.8733,201.5583,213.1398,146.9345,0,U,37180,999,85982,.91268E-6,-.5E-6,0
FENGYUN 3B,2010-059A,2026-07-14T21:28:25.280256,14.14846244,.0023155,98.9611,242.0243,107.2845,8.5324,0,U,37214,999,81134,-.11629E-3,-.27E-5,0
COSMO-SKYMED 4,2010-060A,2026-07-14T20:28:21.360864,14.82147915,.0001473,97.8886,19.0526,85.1208,275.0173,0,U,37216,999,84866,.21291E-4,.117E-5,0
O/OREOS (USA 219),2010-062C,2026-07-14T15:39:49.894848,14.93850312,.0013944,71.9697,18.1178,6.1523,353.9816,0,U,37224,999,12074,.10439E-3,.1047E-4,0
RESOURCESAT-2,2011-015A,2026-07-14T19:40:34.888800,14.21599481,.0011522,98.7632,263.0689,172.1247,188.0113,0,U,37387,999,79010,.19471E-4,-.2E-7,0
YOUTHSAT,2011-015B,2026-07-14T21:06:42.217056,14.25640528,.0013183,98.3702,168.6879,260.2418,163.4642,0,U,37388,999,79158,.47795E-4,.72E-6,0
APRIZESAT 6,2011-044F,2026-07-14T17:17:18.431808,14.76956350,.0043104,98.2339,106.7799,359.7738,61.0492,0,U,37793,999,80121,.5958E-4,.369E-5,0
JUGNU,2011-058B,2026-07-14T04:48:38.397888,14.13783328,.00185389,19.9593,144.3072,15.5090,113.9676,0,U,37839,999,76285,.38942497E-4,.341E-5,0
SRMSAT,2011-058D,2026-07-14T07:00:26.119872,14.11580990,.0011787,19.9711,255.4136,141.3057,265.6885,0,U,37841,999,76165,.42066051E-4,.343E-5,0
SUOMI NPP,2011-061A,2026-07-14T19:55:17.012064,14.19522530,.0000733,98.7955,136.5181,216.4242,143.6885,0,U,37849,999,76236,.21224E-4,0,0
YAOGAN-12,2011-066B,2026-07-14T20:36:06.009696,15.26888278,.001085,97.1126,233.1279,123.1035,237.1248,0,U,37875,999,81626,.60075E-4,.152E-4,0
